{
    "links": {
        "self": "http://www.neowsapp.com/rest/v1/neo/3472699?api_key=iIulBulltgU6a56xZRHN4H3l9WmuAYTsLGpBGhQ2"
    },
    "id": "3472699",
    "neo_reference_id": "3472699",
    "name": "(2009 UY87)",
    "designation": "2009 UY87",
    "nasa_jpl_url": "http://ssd.jpl.nasa.gov/sbdb.cgi?sstr=3472699",
    "absolute_magnitude_h": 19.3,
    "estimated_diameter": {
        "kilometers": {
            "estimated_diameter_min": 0.3669061375,
            "estimated_diameter_max": 0.8204270649
        },
        "meters": {
            "estimated_diameter_min": 366.9061375314,
            "estimated_diameter_max": 820.4270648822
        },
        "miles": {
            "estimated_diameter_min": 0.2279848336,
            "estimated_diameter_max": 0.5097895857
        },
        "feet": {
            "estimated_diameter_min": 1203.7603322587,
            "estimated_diameter_max": 2691.6899315481
        }
    },
    "is_potentially_hazardous_asteroid": false,
    "close_approach_data": [
        {
            "close_approach_date": "2009-11-05",
            "close_approach_date_full": "2009-Nov-05 17:42",
            "epoch_date_close_approach": 1257442920000,
            "relative_velocity": {
                "kilometers_per_second": "23.5265324725",
                "kilometers_per_hour": "84695.5169010745",
                "miles_per_hour": "52626.5004877816"
            },
            "miss_distance": {
                "astronomical": "0.2099180416",
                "lunar": "81.6581181824",
                "kilometers": "31403291.897931392",
                "miles": "19513100.7508695296"
            },
            "orbiting_body": "Earth"
        }
    ],
    "orbital_data": {
        "orbit_id": "15",
        "orbit_determination_date": "2017-04-06 08:59:19",
        "first_observation_date": "2009-10-27",
        "last_observation_date": "2009-11-10",
        "data_arc_in_days": 14,
        "observations_used": 56,
        "orbit_uncertainty": "9",
        "minimum_orbit_intersection": ".0709112",
        "jupiter_tisserand_invariant": "3.283",
        "epoch_osculation": "2455138.5",
        "eccentricity": ".6890794732993147",
        "semi_major_axis": "2.218147295498196",
        "inclination": "7.972724798246007",
        "ascending_node_longitude": "354.3890330805075",
        "orbital_period": "1206.657453441121",
        "perihelion_distance": ".6896675254159997",
        "perihelion_argument": "135.4323704065576",
        "aphelion_distance": "3.746627065580393",
        "perihelion_time": "2455185.978242872727",
        "mean_anomaly": "345.8351122056731",
        "mean_motion": ".2983448193796502",
        "equinox": "J2000",
        "orbit_class": {
            "orbit_class_type": "APO",
            "orbit_class_description": "Near-Earth asteroid orbits which cross the Earth’s orbit similar to that of 1862 Apollo",
            "orbit_class_range": "a (semi-major axis) > 1.0 AU; q (perihelion) < 1.017 AU"
        }
    },
    "is_sentry_object": false
}